{"fetched_at":"2026-07-07T18:29:04.699Z","source":"https://celestrak.org/NORAD/elements/gp.php?GROUP=kuiper&FORMAT=JSON","constellation":"kuiper","records":[{"OBJECT_NAME":"KUIPER-00062","OBJECT_ID":"2025-134Y","EPOCH":"2026-07-07T00:37:04.221120","CLASSIFICATION_TYPE":"U","MEAN_MOTION":14.7992693,"ECCENTRICITY":0.0000592,"INCLINATION":51.8955,"RA_OF_ASC_NODE":62.8767,"ARG_OF_PERICENTER":110.6366,"MEAN_ANOMALY":249.4659,"EPHEMERIS_TYPE":0,"NORAD_CAT_ID":64522,"ELEMENT_SET_NO":999,"REV_AT_EPOCH":5778,"BSTAR":-0.00011206,"MEAN_MOTION_DOT":-0.00001075,"MEAN_MOTION_DDOT":0},{"OBJECT_NAME":"KUIPER-00063","OBJECT_ID":"2025-134Z","EPOCH":"2026-07-07T02:02:40.860096","CLASSIFICATION_TYPE":"U","MEAN_MOTION":14.79922893,"ECCENTRICITY":0.000086,"INCLINATION":51.9018,"RA_OF_ASC_NODE":70.1614,"ARG_OF_PERICENTER":112.0708,"MEAN_ANOMALY":248.0346,"EPHEMERIS_TYPE":0,"NORAD_CAT_ID":64523,"ELEMENT_SET_NO":999,"REV_AT_EPOCH":5768,"BSTAR":0.000037204,"MEAN_MOTION_DOT":6.2e-7,"MEAN_MOTION_DDOT":0},{"OBJECT_NAME":"KUIPER-00064","OBJECT_ID":"2025-134AA","EPOCH":"2026-07-06T21:14:49.164000","CLASSIFICATION_TYPE":"U","MEAN_MOTION":14.79926274,"ECCENTRICITY":0.0000625,"INCLINATION":51.9016,"RA_OF_ASC_NODE":68.4705,"ARG_OF_PERICENTER":100.2752,"MEAN_ANOMALY":259.828,"EPHEMERIS_TYPE":0,"NORAD_CAT_ID":64524,"ELEMENT_SET_NO":999,"REV_AT_EPOCH":5769,"BSTAR":0.000078898,"MEAN_MOTION_DOT":0.0000038,"MEAN_MOTION_DDOT":0},{"OBJECT_NAME":"KUIPER-00065","OBJECT_ID":"2025-134AB","EPOCH":"2026-07-07T01:58:48.687744","CLASSIFICATION_TYPE":"U","MEAN_MOTION":14.79923424,"ECCENTRICITY":0.0000775,"INCLINATION":51.9029,"RA_OF_ASC_NODE":72.7678,"ARG_OF_PERICENTER":101.5112,"MEAN_ANOMALY":258.5938,"EPHEMERIS_TYPE":0,"NORAD_CAT_ID":64525,"ELEMENT_SET_NO":999,"REV_AT_EPOCH":5763,"BSTAR":-0.000068774,"MEAN_MOTION_DOT":-0.00000745,"MEAN_MOTION_DDOT":0},{"OBJECT_NAME":"KUIPER-00066","OBJECT_ID":"2025-134AC","EPOCH":"2026-07-06T17:03:45.603072","CLASSIFICATION_TYPE":"U","MEAN_MOTION":14.79924981,"ECCENTRICITY":0.0000732,"INCLINATION":51.9014,"RA_OF_ASC_NODE":11.6894,"ARG_OF_PERICENTER":105.7817,"MEAN_ANOMALY":254.3226,"EPHEMERIS_TYPE":0,"NORAD_CAT_ID":64526,"ELEMENT_SET_NO":999,"REV_AT_EPOCH":5847,"BSTAR":-0.00021551,"MEAN_MOTION_DOT":-0.00001863,"MEAN_MOTION_DDOT":0},{"OBJECT_NAME":"KUIPER-00069","OBJECT_ID":"2025-151A","EPOCH":"2026-07-07T04:11:09.888864","CLASSIFICATION_TYPE":"U","MEAN_MOTION":14.79922426,"ECCENTRICITY":0.000105,"INCLINATION":51.8999,"RA_OF_ASC_NODE":112.2824,"ARG_OF_PERICENTER":81.8962,"MEAN_ANOMALY":278.2119,"EPHEMERIS_TYPE":0,"NORAD_CAT_ID":64816,"ELEMENT_SET_NO":999,"REV_AT_EPOCH":5445,"BSTAR":0.000024338,"MEAN_MOTION_DOT":-3.6e-7,"MEAN_MOTION_DDOT":0},{"OBJECT_NAME":"KUIPER-00070","OBJECT_ID":"2025-151B","EPOCH":"2026-07-07T05:58:10.735104","CLASSIFICATION_TYPE":"U","MEAN_MOTION":14.79922179,"ECCENTRICITY":0.0000899,"INCLINATION":51.8995,"RA_OF_ASC_NODE":136.8665,"ARG_OF_PERICENTER":64.2404,"MEAN_ANOMALY":295.8652,"EPHEMERIS_TYPE":0,"NORAD_CAT_ID":64817,"ELEMENT_SET_NO":999,"REV_AT_EPOCH":5412,"BSTAR":-0.00012373,"MEAN_MOTION_DOT":-0.00001164,"MEAN_MOTION_DDOT":0},{"OBJECT_NAME":"KUIPER-00071","OBJECT_ID":"2025-151C","EPOCH":"2026-07-07T06:01:59.200032","CLASSIFICATION_TYPE":"U","MEAN_MOTION":14.79919659,"ECCENTRICITY":0.0000817,"INCLINATION":51.9,"RA_OF_ASC_NODE":134.3906,"ARG_OF_PERICENTER":88.3725,"MEAN_ANOMALY":271.7331,"EPHEMERIS_TYPE":0,"NORAD_CAT_ID":64818,"ELEMENT_SET_NO":999,"REV_AT_EPOCH":5297,"BSTAR":0.0003308,"MEAN_MOTION_DOT":0.00002301,"MEAN_MOTION_DDOT":0},{"OBJECT_NAME":"KUIPER-00072","OBJECT_ID":"2025-151D","EPOCH":"2026-07-07T05:44:27.921120","CLASSIFICATION_TYPE":"U","MEAN_MOTION":14.79906251,"ECCENTRICITY":0.0000948,"INCLINATION":51.8959,"RA_OF_ASC_NODE":114.3914,"ARG_OF_PERICENTER":74.7579,"MEAN_ANOMALY":285.3488,"EPHEMERIS_TYPE":0,"NORAD_CAT_ID":64819,"ELEMENT_SET_NO":999,"REV_AT_EPOCH":5325,"BSTAR":-0.00009054,"MEAN_MOTION_DOT":-0.00000911,"MEAN_MOTION_DDOT":0},{"OBJECT_NAME":"KUIPER-00073","OBJECT_ID":"2025-151E","EPOCH":"2026-07-07T05:13:25.760928","CLASSIFICATION_TYPE":"U","MEAN_MOTION":14.79922929,"ECCENTRICITY":0.0000872,"INCLINATION":51.8987,"RA_OF_ASC_NODE":134.5241,"ARG_OF_PERICENTER":85.9974,"MEAN_ANOMALY":274.1088,"EPHEMERIS_TYPE":0,"NORAD_CAT_ID":64820,"ELEMENT_SET_NO":999,"REV_AT_EPOCH":5415,"BSTAR":0.00034503,"MEAN_MOTION_DOT":0.00002409,"MEAN_MOTION_DDOT":0},{"OBJECT_NAME":"KUIPER-00074","OBJECT_ID":"2025-151F","EPOCH":"2026-07-07T10:00:05.000256","CLASSIFICATION_TYPE":"U","MEAN_MOTION":15.97176271,"ECCENTRICITY":0.0002331,"INCLINATION":51.8773,"RA_OF_ASC_NODE":38.9718,"ARG_OF_PERICENTER":199.6108,"MEAN_ANOMALY":114.4045,"EPHEMERIS_TYPE":0,"NORAD_CAT_ID":64821,"ELEMENT_SET_NO":999,"REV_AT_EPOCH":533,"BSTAR":0.00049236,"MEAN_MOTION_DOT":0.00217899,"MEAN_MOTION_DDOT":0.000030197},{"OBJECT_NAME":"KUIPER-00075","OBJECT_ID":"2025-151G","EPOCH":"2026-07-07T11:59:19.170816","CLASSIFICATION_TYPE":"U","MEAN_MOTION":15.4526062,"ECCENTRICITY":0.0002723,"INCLINATION":51.8684,"RA_OF_ASC_NODE":357.0708,"ARG_OF_PERICENTER":351.5539,"MEAN_ANOMALY":8.5404,"EPHEMERIS_TYPE":0,"NORAD_CAT_ID":64822,"ELEMENT_SET_NO":999,"REV_AT_EPOCH":5490,"BSTAR":0.00058746,"MEAN_MOTION_DOT":0.00028097,"MEAN_MOTION_DDOT":0},{"OBJECT_NAME":"KUIPER-00076","OBJECT_ID":"2025-151H","EPOCH":"2026-07-07T05:28:58.173312","CLASSIFICATION_TYPE":"U","MEAN_MOTION":14.79931728,"ECCENTRICITY":0.0000837,"INCLINATION":51.8985,"RA_OF_ASC_NODE":124.4951,"ARG_OF_PERICENTER":87.7814,"MEAN_ANOMALY":272.3245,"EPHEMERIS_TYPE":0,"NORAD_CAT_ID":64823,"ELEMENT_SET_NO":999,"REV_AT_EPOCH":5311,"BSTAR":0.0001451,"MEAN_MOTION_DOT":0.00000885,"MEAN_MOTION_DDOT":0},{"OBJECT_NAME":"KUIPER-00077","OBJECT_ID":"2025-151J","EPOCH":"2026-07-06T06:39:47.632032","CLASSIFICATION_TYPE":"U","MEAN_MOTION":14.79942418,"ECCENTRICITY":0.00007486,"INCLINATION":51.8999,"RA_OF_ASC_NODE":133.7183,"ARG_OF_PERICENTER":89.0443,"MEAN_ANOMALY":271.0605,"EPHEMERIS_TYPE":0,"NORAD_CAT_ID":64824,"ELEMENT_SET_NO":999,"REV_AT_EPOCH":5290,"BSTAR":0.00052536653,"MEAN_MOTION_DOT":0.00003787,"MEAN_MOTION_DDOT":0},{"OBJECT_NAME":"KUIPER-00078","OBJECT_ID":"2025-151K","EPOCH":"2026-07-06T01:03:19.754496","CLASSIFICATION_TYPE":"U","MEAN_MOTION":14.7992598,"ECCENTRICITY":0.00008238,"INCLINATION":51.8988,"RA_OF_ASC_NODE":132.2298,"ARG_OF_PERICENTER":92.961,"MEAN_ANOMALY":267.1447,"EPHEMERIS_TYPE":0,"NORAD_CAT_ID":64825,"ELEMENT_SET_NO":999,"REV_AT_EPOCH":5290,"BSTAR":0.000093882756,"MEAN_MOTION_DOT":0.00000494,"MEAN_MOTION_DDOT":0},{"OBJECT_NAME":"KUIPER-00079","OBJECT_ID":"2025-151L","EPOCH":"2026-07-06T06:35:53.980512","CLASSIFICATION_TYPE":"U","MEAN_MOTION":14.79940918,"ECCENTRICITY":0.00006934,"INCLINATION":51.8981,"RA_OF_ASC_NODE":136.1702,"ARG_OF_PERICENTER":77.1189,"MEAN_ANOMALY":282.9851,"EPHEMERIS_TYPE":0,"NORAD_CAT_ID":64826,"ELEMENT_SET_NO":999,"REV_AT_EPOCH":5406,"BSTAR":0.0005221927,"MEAN_MOTION_DOT":0.00003763,"MEAN_MOTION_DDOT":0}]}
