KUIPER-00062            
1 64522U 25134Y   26188.02574330 -.00001075  00000+0 -11206-3 0  9990
2 64522  51.8955  62.8767 0000592 110.6366 249.4659 14.79926930 57785
KUIPER-00063            
1 64523U 25134Z   26188.08519514  .00000062  00000+0  37204-4 0  9990
2 64523  51.9018  70.1614 0000860 112.0708 248.0346 14.79922893 57685
KUIPER-00064            
1 64524U 25134AA  26187.88529125  .00000380  00000+0  78898-4 0  9994
2 64524  51.9016  68.4705 0000625 100.2752 259.8280 14.79926274 57697
KUIPER-00065            
1 64525U 25134AB  26188.08250796 -.00000745  00000+0 -68774-4 0  9992
2 64525  51.9029  72.7678 0000775 101.5112 258.5938 14.79923424 57633
KUIPER-00066            
1 64526U 25134AC  26187.71094448 -.00001863  00000+0 -21551-3 0  9995
2 64526  51.9014  11.6894 0000732 105.7817 254.3226 14.79924981 58477
KUIPER-00069            
1 64816U 25151A   26188.17442001 -.00000036  00000+0  24338-4 0  9996
2 64816  51.8999 112.2824 0001050  81.8962 278.2119 14.79922426 54452
KUIPER-00070            
1 64817U 25151B   26188.24873536 -.00001164  00000+0 -12373-3 0  9995
2 64817  51.8995 136.8665 0000899  64.2404 295.8652 14.79922179 54126
KUIPER-00071            
1 64818U 25151C   26188.25137963  .00002301  00000+0  33080-3 0  9994
2 64818  51.9000 134.3906 0000817  88.3725 271.7331 14.79919659 52976
KUIPER-00072            
1 64819U 25151D   26188.23921205 -.00000911  00000+0 -90540-4 0  9995
2 64819  51.8959 114.3914 0000948  74.7579 285.3488 14.79906251 53257
KUIPER-00073            
1 64820U 25151E   26188.21765927  .00002409  00000+0  34503-3 0  9990
2 64820  51.8987 134.5241 0000872  85.9974 274.1088 14.79922929 54158
KUIPER-00074            
1 64821U 25151F   26188.41672454  .00217899  30197-4  49236-3 0  9990
2 64821  51.8773  38.9718 0002331 199.6108 114.4045 15.97176271  5339
KUIPER-00075            
1 64822U 25151G   26188.49952744  .00028097  00000+0  58746-3 0  9993
2 64822  51.8684 357.0708 0002723 351.5539   8.5404 15.45260620 54901
KUIPER-00076            
1 64823U 25151H   26188.22845108  .00000885  00000+0  14510-3 0  9996
2 64823  51.8985 124.4951 0000837  87.7814 272.3245 14.79931728 53116
KUIPER-00077            
1 64824U 25151J   26187.27763463  .00003787  00000+0  52537-3 0  9999
2 64824  51.8999 133.7183 0000748  89.0443 271.0605 14.79942418 52906
KUIPER-00078            
1 64825U 25151K   26187.04397864  .00000494  00000+0  93883-4 0  9995
2 64825  51.8988 132.2298 0000823  92.9610 267.1447 14.79925980 52904
KUIPER-00079            
1 64826U 25151L   26187.27493033  .00003763  00000+0  52219-3 0  9995
2 64826  51.8981 136.1702 0000693  77.1189 282.9851 14.79940918 54063
